NORAD_CAT_ID,OBJECT_NAME,OBJECT_TYPE,EPOCH,MEAN_MOTION,ECCENTRICITY,INCLINATION,RA_OF_ASC_NODE,ARG_OF_PERICENTER,MEAN_ANOMALY,BSTAR,MEAN_MOTION_DOT,MEAN_MOTION_DDOT,TLE_LINE0,TLE_LINE1,TLE_LINE2,SEMIMAJOR_AXIS,PERIOD,APOGEE,PERIGEE,DECAYED
55427.0,STARLINK-5073,PAYLOAD,2023-05-06 16:00:00,15.42296486,0.0003384,69.9987,183.7597,275.2909,105.493,-0.023698,-0.00938542,0.0,0 STARLINK-5073,1 55427U 23014AN  23126.66667824 -.00938542  00000-0 -23698-1 0  9994,2 55427  69.9987 183.7597 0003384 275.2909 105.4930 15.42296486  1308,6817.47,93.367,441.642,437.028,0.0
55427.0,STARLINK-5073,PAYLOAD,2023-05-07 06:00:00,15.41167354,0.0003459,69.9987,182.1879,269.3117,108.0937,-0.025336,-0.00963906,0.0,0 STARLINK-5073,1 55427U 23014AN  23127.25001157 -.00963906  00000-0 -25336-1 0  9994,2 55427  69.9987 182.1879 0003459 269.3117 108.0937 15.41167354 15178,6820.8,93.436,445.024,440.306,0.0
55427.0,STARLINK-5073,PAYLOAD,2023-05-07 14:00:01,15.4046966,0.0003382,69.9988,181.2916,276.9483,148.8888,-0.023546,-0.00882005,0.0,0 STARLINK-5073,1 55427U 23014AN  23127.58334491 -.00882005  00000-0 -23546-1 0  9991,2 55427  69.9988 181.2916 0003382 276.9483 148.8888 15.40469660  1307,6822.859,93.478,447.032,442.417,0.0
55427.0,STARLINK-5073,PAYLOAD,2023-05-07 22:00:00,15.39799245,0.0003396,69.9983,180.3945,270.1323,203.3527,-0.023365,-0.00857956,0.0,0 STARLINK-5073,1 55427U 23014AN  23127.91667824 -.00857956  00000-0 -23365-1 0  9993,2 55427  69.9983 180.3945 0003396 270.1323 203.3527 15.39799245 15279,6824.839,93.519,449.022,444.387,0.0
55427.0,STARLINK-5073,PAYLOAD,2023-05-08 14:00:01,15.38511606,0.0003408,69.9982,178.6046,272.7536,293.6614,-0.025111,-0.00881855,0.0,0 STARLINK-5073,1 55427U 23014AN  23128.58334491 -.00881855  00000-0 -25111-1 0  9994,2 55427  69.9982 178.6046 0003408 272.7536 293.6614 15.38511606 15381,6828.647,93.597,452.839,448.185,0.0
55427.0,STARLINK-5073,PAYLOAD,2023-05-08 22:00:00,15.37843063,0.0003459,69.9983,177.711,267.1898,344.5244,-0.024932,-0.0085855,0.0,0 STARLINK-5073,1 55427U 23014AN  23128.91667824 -.00858550  00000-0 -24932-1 0  9996,2 55427  69.9983 177.7110 0003459 267.1898 344.5244 15.37843063  1305,6830.626,93.638,454.854,450.128,0.0
55427.0,STARLINK-5073,PAYLOAD,2023-05-09 06:00:00,15.37241371,0.0003567,69.9989,176.8191,265.8579,30.3543,-0.028145,-0.00942864,0.0,0 STARLINK-5073,1 55427U 23014AN  23129.25001157 -.00942864  00000-0 -28145-1 0  9997,2 55427  69.9989 176.8191 0003567 265.8579  30.3543 15.37241371 15481,6832.408,93.674,456.71,451.836,0.0
55427.0,STARLINK-5073,PAYLOAD,2023-05-09 14:00:01,15.36557712,0.0003616,69.9983,175.9263,272.4051,67.5411,-0.02693,-0.00887092,0.0,0 STARLINK-5073,1 55427U 23014AN  23129.58334491 -.00887092  00000-0 -26930-1 0  9994,2 55427  69.9983 175.9263 0003616 272.4051  67.5411 15.36557712  1309,6834.435,93.716,458.771,453.828,0.0
55427.0,STARLINK-5073,PAYLOAD,2023-05-10 14:00:01,15.34606105,0.0003441,69.9983,173.2558,276.3729,190.0647,-0.028956,-0.00895128,0.0,0 STARLINK-5073,1 55427U 23014AN  23130.58334491 -.00895128  00000-0 -28956-1 0  9995,2 55427  69.9983 173.2558 0003441 276.3729 190.0647 15.34606105  1300,6840.228,93.835,464.446,459.739,0.0
55427.0,STARLINK-5073,PAYLOAD,2023-05-10 22:00:00,15.33923792,0.0003272,69.9983,172.3677,268.968,238.0778,-0.027839,-0.00846012,0.0,0 STARLINK-5073,1 55427U 23014AN  23130.91667824 -.00846012  00000-0 -27839-1 0  9998,2 55427  69.9983 172.3677 0003272 268.9680 238.0778 15.33923792 15730,6842.256,93.877,466.36,461.882,0.0
55427.0,STARLINK-5073,PAYLOAD,2023-05-11 06:00:00,15.33332176,0.000334,69.9986,171.4803,270.4312,276.4203,-0.032479,-0.00958313,0.0,0 STARLINK-5073,1 55427U 23014AN  23131.25001157 -.00958313  00000-0 -32479-1 0  9991,2 55427  69.9986 171.4803 0003340 270.4312 276.4203 15.33332176 15795,6844.016,93.913,468.167,463.595,0.0
55427.0,STARLINK-5073,PAYLOAD,2023-05-11 14:00:01,15.32657939,0.0003338,69.9983,170.5938,274.2316,311.6544,-0.03128,-0.00907868,0.0,0 STARLINK-5073,1 55427U 23014AN  23131.58334491 -.00907868  00000-0 -31280-1 0  9995,2 55427  69.9983 170.5938 0003338 274.2316 311.6544 15.32657939  1302,6846.023,93.954,470.173,465.603,0.0
55427.0,STARLINK-5073,PAYLOAD,2023-05-11 16:00:00,15.32522748,0.0003434,69.9983,170.3723,273.7275,51.7884,-0.033387,-0.00960085,0.0,0 STARLINK-5073,1 55427U 23014AN  23131.66667824 -.00960085  00000-0 -33387-1 0  9993,2 55427  69.9983 170.3723 0003434 273.7275  51.7884 15.32522748 15850,6846.426,93.963,470.642,465.939,0.0
55427.0,STARLINK-5073,PAYLOAD,2023-05-11 22:00:00,15.31967741,0.0003306,69.9987,169.7082,266.3712,357.7811,-0.02958,-0.00845148,0.0,0 STARLINK-5073,1 55427U 23014AN  23131.91667824 -.00845148  00000-0 -29580-1 0  9993,2 55427  69.9987 169.7082 0003306 266.3712 357.7811 15.31967741  1305,6848.079,93.997,472.208,467.68,0.0
55427.0,STARLINK-5073,PAYLOAD,2023-05-12 06:00:00,15.31370593,0.0003415,69.9988,168.8236,267.1939,34.4181,-0.03427,-0.00951257,0.0,0 STARLINK-5073,1 55427U 23014AN  23132.25001157 -.00951257  00000-0 -34270-1 0  9993,2 55427  69.9988 168.8236 0003415 267.1939  34.4181 15.31370593 15945,6849.859,94.033,474.063,469.385,0.0
55427.0,STARLINK-5073,PAYLOAD,2023-05-12 12:00:00,15.30843858,0.0003271,69.9987,168.1606,271.53,327.6765,-0.031607,-0.00869799,0.0,0 STARLINK-5073,1 55427U 23014AN  23132.50001157 -.00869799  00000-0 -31607-1 0  9991,2 55427  69.9987 168.1606 0003271 271.5300 327.6765 15.30843858  1307,6851.43,94.066,475.536,471.054,0.0
55427.0,STARLINK-5073,PAYLOAD,2023-05-12 22:00:00,15.30003918,0.0003404,69.9988,167.0567,267.6283,106.5935,-0.031032,-0.008348,0.0,0 STARLINK-5073,1 55427U 23014AN  23132.91667824 -.00834800  00000-0 -31032-1 0  9992,2 55427  69.9988 167.0567 0003404 267.6283 106.5935 15.30003918 16041,6853.938,94.117,478.136,473.47,0.0
55427.0,STARLINK-5073,PAYLOAD,2023-05-13 06:00:00,15.29408185,0.0003387,69.9991,166.1748,269.7526,139.5806,-0.036159,-0.00956922,0.0,0 STARLINK-5073,1 55427U 23014AN  23133.25001157 -.00956922  00000-0 -36159-1 0  9996,2 55427  69.9991 166.1748 0003387 269.7526 139.5806 15.29408185 16090,6855.717,94.154,479.904,475.26,0.0
55427.0,STARLINK-5073,PAYLOAD,2023-05-13 14:00:01,15.28756926,0.0003336,69.9986,165.2933,275.7296,167.9356,-0.036062,-0.00925303,0.0,0 STARLINK-5073,1 55427U 23014AN  23133.58334491 -.00925303  00000-0 -36062-1 0  9994,2 55427  69.9986 165.2933 0003336 275.7296 167.9356 15.28756926  1306,6857.664,94.194,481.817,477.242,0.0
55427.0,STARLINK-5073,PAYLOAD,2023-05-13 22:00:00,15.28048225,0.0003246,69.9989,164.413,268.8529,208.3922,-0.032918,-0.00833791,0.0,0 STARLINK-5073,1 55427U 23014AN  23133.91667824 -.00833791  00000-0 -32918-1 0  9995,2 55427  69.9989 164.4130 0003246 268.8529 208.3922 15.28048225 16199,6859.784,94.238,483.876,479.423,0.0
55427.0,STARLINK-5073,PAYLOAD,2023-05-14 06:00:00,15.27444197,0.0003214,69.9991,163.5334,269.9018,240.1123,-0.037914,-0.00945506,0.0,0 STARLINK-5073,1 55427U 23014AN  23134.25001157 -.00945506  00000-0 -37914-1 0  9993,2 55427  69.9991 163.5334 0003214 269.9018 240.1123 15.27444197 16248,6861.593,94.275,485.663,481.252,0.0
55427.0,STARLINK-5073,PAYLOAD,2023-05-14 14:00:01,15.26801764,0.0003152,69.9987,162.6547,273.8861,268.1119,-0.038541,-0.00942723,0.0,0 STARLINK-5073,1 55427U 23014AN  23134.58334491 -.00942723  00000-0 -38541-1 0  9994,2 55427  69.9987 162.6547 0003152 273.8861 268.1119 15.26801764  1302,6863.517,94.315,487.546,483.219,0.0
55427.0,STARLINK-5073,PAYLOAD,2023-05-14 22:00:00,15.2609532,0.0003183,69.9987,161.7768,266.1454,307.082,-0.035127,-0.00838018,0.0,0 STARLINK-5073,1 55427U 23014AN  23134.91667824 -.00838018  00000-0 -35127-1 0  9998,2 55427  69.9987 161.7768 0003183 266.1454 307.0820 15.26095320  1309,6865.635,94.358,489.686,485.315,0.0
55427.0,STARLINK-5073,PAYLOAD,2023-05-15 06:00:00,15.2548037,0.000321,69.999,160.9,267.769,335.8846,-0.039647,-0.00932543,0.0,0 STARLINK-5073,1 55427U 23014AN  23135.25001157 -.00932543  00000-0 -39647-1 0  9996,2 55427  69.9990 160.9000 0003210 267.7690 335.8846 15.25480370 16409,6867.48,94.396,491.55,487.141,0.0
55427.0,STARLINK-5073,PAYLOAD,2023-05-15 14:00:01,15.24848246,0.0003234,69.9983,160.0238,271.3941,1.8942,-0.041275,-0.00951088,0.0,0 STARLINK-5073,1 55427U 23014AN  23135.58334491 -.00951088  00000-0 -41275-1 0  9997,2 55427  69.9983 160.0238 0003234 271.3941   1.8942 15.24848246  1300,6869.378,94.436,493.465,489.022,0.0
55427.0,STARLINK-5073,PAYLOAD,2023-05-15 22:00:00,15.2414103,0.0003295,69.9984,159.1486,264.6588,37.5111,-0.037421,-0.00841486,0.0,0 STARLINK-5073,1 55427U 23014AN  23135.91667824 -.00841486  00000-0 -37421-1 0  9991,2 55427  69.9984 159.1486 0003295 264.6588  37.5111 15.24141030  1305,6871.503,94.479,495.632,491.104,0.0
55427.0,STARLINK-5073,PAYLOAD,2023-05-16 14:00:01,15.22893679,0.0003273,69.998,157.4007,272.4539,85.1466,-0.044027,-0.00956544,0.0,0 STARLINK-5073,1 55427U 23014AN  23136.58335648 -.00956544  00000-0 -44027-1 0  9993,2 55427  69.9980 157.4007 0003273 272.4539  85.1466 15.22893679 16602,6875.255,94.557,499.37,494.869,0.0
55427.0,STARLINK-5073,PAYLOAD,2023-05-16 22:00:00,15.22189329,0.0003327,69.998,156.5281,267.3173,116.754,-0.04012,-0.00850532,0.0,0 STARLINK-5073,1 55427U 23014AN  23136.91667824 -.00850532  00000-0 -40120-1 0  9994,2 55427  69.9980 156.5281 0003327 267.3173 116.7540 15.22189329  1308,6877.375,94.601,501.528,496.952,0.0
55427.0,STARLINK-5073,PAYLOAD,2023-05-17 04:00:00,15.21754005,0.0003296,69.9982,155.8742,268.1182,45.3165,-0.045937,-0.00964314,0.0,0 STARLINK-5073,1 55427U 23014AN  23137.16667824 -.00964314  00000-0 -45937-1 0  9997,2 55427  69.9982 155.8742 0003296 268.1182  45.3165 15.21754005 16694,6878.687,94.628,502.819,498.285,0.0
55427.0,STARLINK-5073,PAYLOAD,2023-05-17 22:00:00,15.20238763,0.0003186,69.9976,153.9155,268.3221,190.609,-0.043056,-0.0087121,0.0,0 STARLINK-5073,1 55427U 23014AN  23137.91667824 -.00871210  00000-0 -43056-1 0  9992,2 55427  69.9976 153.9155 0003186 268.3221 190.6090 15.20238763 16809,6883.257,94.722,507.315,502.929,0.0
